*******************************************************************************
Ephemeris / WWW_USER Tue Mar 27 22:06:54 2018 Pasadena, USA      / Horizons    
*******************************************************************************
Target body name: Uranus (799)                    {source: ura111}
Center body name: Solar System Barycenter (0)     {source: DE431mx}
Center-site name: BODY CENTER
*******************************************************************************
Start time      : A.D. 2018-Feb-08 00:00:00.0000 TDB
Stop  time      : A.D. 2023-Feb-08 00:00:00.0000 TDB
Step-size       : 7200 minutes
*******************************************************************************
Center geodetic : 0.00000000,0.00000000,0.0000000 {E-lon(deg),Lat(deg),Alt(km)}
Center cylindric: 0.00000000,0.00000000,0.0000000 {E-lon(deg),Dxy(km),Dz(km)}
Center radii    : (undefined)                                                  
Output units    : AU-D                                                         
Output type     : GEOMETRIC cartesian states
Output format   : 2 (position and velocity)
Reference frame : ICRF/J2000.0                                                 
Coordinate systm: Ecliptic and Mean Equinox of Reference Epoch                 
*******************************************************************************
JDTDB
   X     Y     Z
   VX    VY    VZ
*******************************************************************************
$$SOE
2459417.500000000 = A.D. 2021-Jul-22 00:00:00.0000 TDB 
   1.482464128725479E+01  1.303726678623459E+01 -1.436342506106267E-01
  -2.626280995726897E-03  2.770228157751949E-03  4.423577350389427E-05
2459422.500000000 = A.D. 2021-Jul-27 00:00:00.0000 TDB 
   1.481150280634851E+01  1.305111168369347E+01 -1.434126782693413E-01
  -2.629097746308118E-03  2.767719751917804E-03  4.433804312695210E-05
2459427.500000000 = A.D. 2021-Aug-01 00:00:00.0000 TDB 
   1.479835001019215E+01  1.306494402352714E+01 -1.431910505681259E-01
  -2.632034054078577E-03  2.765225330869594E-03  4.435910726350193E-05
2459432.500000000 = A.D. 2021-Aug-06 00:00:00.0000 TDB 
   1.478518327012964E+01  1.307876379593707E+01 -1.429687761882630E-01
  -2.634678992330618E-03  2.762648551455598E-03  4.427535846354484E-05
2459437.500000000 = A.D. 2021-Aug-11 00:00:00.0000 TDB 
   1.477200199709867E+01  1.309257092494764E+01 -1.427472181238233E-01
  -2.637821249994815E-03  2.760205382762851E-03  4.437974948428078E-05
2459442.500000000 = A.D. 2021-Aug-16 00:00:00.0000 TDB 
   1.475880657165401E+01  1.310636555124098E+01 -1.425246993022178E-01
  -2.640467335778394E-03  2.757641592928648E-03  4.441891169410080E-05
2459447.500000000 = A.D. 2021-Aug-21 00:00:00.0000 TDB 
   1.474559700802925E+01  1.312014749289577E+01 -1.423024099246868E-01
  -2.643296805497782E-03  2.755120245079957E-03  4.449057180908505E-05
2459452.500000000 = A.D. 2021-Aug-26 00:00:00.0000 TDB 
   1.473237327722493E+01  1.313391676894903E+01 -1.420801603169004E-01
  -2.646230397887161E-03  2.752596342032459E-03  4.439869817257865E-05
2459457.500000000 = A.D. 2021-Aug-31 00:00:00.0000 TDB 
   1.471913513449970E+01  1.314767352772314E+01 -1.418572063511470E-01
  -2.648880083668593E-03  2.750039243049695E-03  4.452977275793873E-05
2459462.500000000 = A.D. 2021-Sep-05 00:00:00.0000 TDB 
   1.470588323158709E+01  1.316141742787828E+01 -1.416348624783345E-01
  -2.651973179545692E-03  2.747543293772718E-03  4.442495279105775E-05
2459467.500000000 = A.D. 2021-Sep-10 00:00:00.0000 TDB 
   1.469261663401881E+01  1.317514885004392E+01 -1.414117899337136E-01
  -2.654632231697793E-03  2.744991256580730E-03  4.461369990471597E-05
2459472.500000000 = A.D. 2021-Sep-15 00:00:00.0000 TDB 
   1.467933620992526E+01  1.318886748584702E+01 -1.411887547859025E-01
  -2.657464176058857E-03  2.742452708670869E-03  4.464396986482236E-05
2459477.500000000 = A.D. 2021-Sep-20 00:00:00.0000 TDB 
   1.466604182389376E+01  1.320257335527111E+01 -1.409657247230026E-01
  -2.660300635085290E-03  2.739884680269429E-03  4.447875018230953E-05
2459482.500000000 = A.D. 2021-Sep-25 00:00:00.0000 TDB 
   1.465273266791027E+01  1.321626667106678E+01 -1.407423698922142E-01
  -2.663117740364010E-03  2.737371248156620E-03  4.474348540577683E-05
2459487.500000000 = A.D. 2021-Sep-30 00:00:00.0000 TDB 
   1.463941022198886E+01  1.322994705369300E+01 -1.405189968636783E-01
  -2.666000444590592E-03  2.734802137716965E-03  4.453470759884291E-05
2459492.500000000 = A.D. 2021-Oct-05 00:00:00.0000 TDB 
   1.462607291631583E+01  1.324361484889347E+01 -1.402954953902252E-01
  -2.668776797181163E-03  2.732273413986733E-03  4.479067261736177E-05
2459497.500000000 = A.D. 2021-Oct-10 00:00:00.0000 TDB 
   1.461272185916240E+01  1.325726982062591E+01 -1.400717473030899E-01
  -2.671585934128926E-03  2.729711531670937E-03  4.477913603904179E-05
2459502.500000000 = A.D. 2021-Oct-15 00:00:00.0000 TDB 
   1.459935696437625E+01  1.327091196223384E+01 -1.398478374220103E-01
  -2.674302351046352E-03  2.727110197790263E-03  4.464630300747580E-05
2459507.500000000 = A.D. 2021-Oct-20 00:00:00.0000 TDB 
   1.458597736319016E+01  1.328454139519097E+01 -1.396241711882755E-01
  -2.677320824698489E-03  2.724620931513454E-03  4.486073276963352E-05
2459512.500000000 = A.D. 2021-Oct-25 00:00:00.0000 TDB 
   1.457258434243199E+01  1.329815796394787E+01 -1.393997706081251E-01
  -2.679976282073853E-03  2.722003468019223E-03  4.474188962677483E-05
2459517.500000000 = A.D. 2021-Oct-30 00:00:00.0000 TDB 
   1.455917681624464E+01  1.331176173181371E+01 -1.391757805828206E-01
  -2.682871755888264E-03  2.719478245236272E-03  4.492877530461631E-05
2459522.500000000 = A.D. 2021-Nov-04 00:00:00.0000 TDB 
   1.454575540350879E+01  1.332535266748051E+01 -1.389513819707966E-01
  -2.685647769555230E-03  2.716895443944661E-03  4.490120990906742E-05
2459527.500000000 = A.D. 2021-Nov-09 00:00:00.0000 TDB 
   1.453232010566271E+01  1.333893074966431E+01 -1.387266387402777E-01
  -2.688303537651946E-03  2.714283831723338E-03  4.487820438820357E-05
2459532.500000000 = A.D. 2021-Nov-14 00:00:00.0000 TDB 
   1.451887060044895E+01  1.335249590322258E+01 -1.385024960177787E-01
  -2.691408315937812E-03  2.711776176526123E-03  4.491210725771142E-05
2459537.500000000 = A.D. 2021-Nov-19 00:00:00.0000 TDB 
   1.450540708198998E+01  1.336604830520215E+01 -1.382773109806698E-01
  -2.693971528157060E-03  2.709155523515628E-03  4.499993153805722E-05
2459542.500000000 = A.D. 2021-Nov-24 00:00:00.0000 TDB 
   1.449192969987789E+01  1.337958769103046E+01 -1.380526489565800E-01
  -2.696887207255439E-03  2.706603267528389E-03  4.504867137363338E-05
2459547.500000000 = A.D. 2021-Nov-29 00:00:00.0000 TDB 
   1.447843826377727E+01  1.339311421209333E+01 -1.378276340987449E-01
  -2.699644596434873E-03  2.704003452658219E-03  4.501372330160547E-05
2459552.500000000 = A.D. 2021-Dec-04 00:00:00.0000 TDB 
   1.446493275292415E+01  1.340662786797500E+01 -1.376022334805234E-01
  -2.702330482081826E-03  2.701404186834137E-03  4.511858291398599E-05
2459557.500000000 = A.D. 2021-Dec-09 00:00:00.0000 TDB 
   1.445141367912641E+01  1.342012841081655E+01 -1.373773129393416E-01
  -2.705358320789922E-03  2.698841935886866E-03  4.496614118409954E-05
2459562.500000000 = A.D. 2021-Dec-14 00:00:00.0000 TDB 
   1.443787998764138E+01  1.343361623196552E+01 -1.371516505004708E-01
  -2.707990777914735E-03  2.696249259286512E-03  4.523545267615909E-05
2459567.500000000 = A.D. 2021-Dec-19 00:00:00.0000 TDB 
   1.442433295085382E+01  1.344709091390247E+01 -1.369261576274895E-01
  -2.710832943136692E-03  2.693654633076869E-03  4.517531999135823E-05
2459572.500000000 = A.D. 2021-Dec-24 00:00:00.0000 TDB 
   1.441077182582025E+01  1.346055265248993E+01 -1.367004968284408E-01
  -2.713563951878085E-03  2.691034638526678E-03  4.513027552175099E-05
2459577.500000000 = A.D. 2021-Dec-29 00:00:00.0000 TDB 
   1.439719645749378E+01  1.347400147674688E+01 -1.364746368312159E-01
  -2.716374295350286E-03  2.688461782921940E-03  4.530750310356405E-05
2459582.500000000 = A.D. 2022-Jan-03 00:00:00.0000 TDB 
   1.438360790826053E+01  1.348743712247711E+01 -1.362487059788972E-01
  -2.719194391382122E-03  2.685830711615723E-03  4.507882675533546E-05
2459587.500000000 = A.D. 2022-Jan-08 00:00:00.0000 TDB 
   1.437000457777641E+01  1.350085992421124E+01 -1.360227320926302E-01
  -2.721997276971826E-03  2.683271632319465E-03  4.540369578191223E-05
2459592.500000000 = A.D. 2022-Jan-13 00:00:00.0000 TDB 
   1.435638800738660E+01  1.351426958071784E+01 -1.357963811198980E-01
  -2.724722859662699E-03  2.680634027312405E-03  4.530493385119067E-05
2459597.500000000 = A.D. 2022-Jan-18 00:00:00.0000 TDB 
   1.434275746997938E+01  1.352766618685794E+01 -1.355700176691758E-01
  -2.727419867172865E-03  2.677997491343987E-03  4.527947355696969E-05
2459602.500000000 = A.D. 2022-Jan-23 00:00:00.0000 TDB 
   1.432911273862924E+01  1.354104976268635E+01 -1.353437720008038E-01
  -2.730377752325310E-03  2.675436833318176E-03  4.539836763041939E-05
2459607.500000000 = A.D. 2022-Jan-28 00:00:00.0000 TDB 
   1.431545468890037E+01  1.355442021892916E+01 -1.351168346671025E-01
  -2.732977021032581E-03  2.672760868077995E-03  4.527886168915107E-05
2459612.500000000 = A.D. 2022-Feb-02 00:00:00.0000 TDB 
   1.430178229367299E+01  1.356777758944484E+01 -1.348904709093650E-01
  -2.735936973154031E-03  2.670208373795679E-03  4.548942046607568E-05
2459617.500000000 = A.D. 2022-Feb-07 00:00:00.0000 TDB 
   1.428809635163326E+01  1.358112187299532E+01 -1.346633690592569E-01
  -2.738556186865426E-03  2.667541677801793E-03  4.543564082139017E-05
2459622.500000000 = A.D. 2022-Feb-12 00:00:00.0000 TDB 
   1.427439662656551E+01  1.359445300279646E+01 -1.344362885983983E-01
  -2.741253125280355E-03  2.664899892603374E-03  4.545322127974135E-05
